*******************************************************************************
Ephemeris / WWW_USER Mon Mar 10 07:02:34 2025 Pasadena, USA      / Horizons    
*******************************************************************************
Target body name: (2019 AU)                       {source: JPL#11}
Center body name: Earth (399)                     {source: DE441}
Center-site name: Mauna Kea
*******************************************************************************
Start time      : A.D. 2018-Aug-18 04:58:00.0000 UT      
Stop  time      : A.D. 2018-Aug-18 15:53:00.0000 UT      
Step-size       : 1 minutes
*******************************************************************************
Target pole/equ : undefined
Target radii    : undefined                                                    
Center geodetic : 204.5278, 19.8260847, 4.21024   {E-lon(deg),Lat(deg),Alt(km)}
Center cylindric: 204.5278, 6006.35451, 2151.0229 {E-lon(deg),Dxy(km),Dz(km)}
Center pole/equ : ITRF93                          {East-longitude positive}
Center radii    : 6378.137, 6378.137, 6356.752 km {Equator_a, b, pole_c}       
Target primary  : Sun
Vis. interferer : MOON (R_eq= 1737.400) km        {source: DE441}
Rel. light bend : Sun                             {source: DE441}
Rel. lght bnd GM: 1.3271E+11 km^3/s^2                                          
Small-body perts: Yes                             {source: SB441-N16}
Atmos refraction: NO (AIRLESS)
RA format       : HMS
Time format     : CAL 
Calendar mode   : Mixed Julian/Gregorian
RTS-only print  : NO       
EOP file        : eop.250307.p250603                                           
EOP coverage    : DATA-BASED 1962-JAN-20 TO 2025-MAR-07. PREDICTS-> 2025-JUN-02
Units conversion: 1 au= 149597870.700 km, c= 299792.458 km/s, 1 day= 86400.0 s 
Table cut-offs 1: Elevation (-90.0deg=NO ),Airmass (>38.000=NO), Daylight (YES)
Table cut-offs 2: Solar elongation (  0.0,180.0=NO ),Local Hour Angle( 0.0=NO )
Table cut-offs 3: RA/DEC angular rate (     0.0=NO )                           
*******************************************************************************
Initial IAU76/J2000 heliocentric ecliptic osculating elements (au, days, deg.):
  EPOCH=  2458490.5 ! 2019-Jan-07.00 (TDB)         Residual RMS= .17143        
   EC= .1028488096127525   QR= .9927870416208908   TP= 2458466.0562707144      
   OM= 109.6543146265929   W=  330.7265060973358   IN= 5.020660041219873       
  Equivalent ICRF heliocentric cartesian coordinates (au, au/d):
   X=-2.730606646751524E-01  Y= 8.866895536052930E-01  Z= 3.780071563225811E-01
  VX=-1.742089442644723E-02 VY=-4.449382429672076E-03 VZ=-2.237797348809624E-04
Asteroid physical parameters (km, seconds, rotational period in hours):        
   GM= n.a.                RAD= n.a.               ROTPER= n.a.                
   H= 26.7                 G= .150                 B-V= n.a.                   
                           ALBEDO= n.a.            STYP= n.a.                  
*******************************************************************************
 Date__(UT)__HR:MN     R.A._________(ICRF)_________DEC
******************************************************
$$SOE
 2018-Aug-18 04:58 Cm  00 43 55.930390 -20 38 47.83245
 2018-Aug-18 04:59 Cm  00 43 56.025545 -20 38 49.39055
 2018-Aug-18 05:00 Cm  00 43 56.120641 -20 38 50.94889
 2018-Aug-18 05:01 Cm  00 43 56.215678 -20 38 52.50746
 2018-Aug-18 05:02 Cm  00 43 56.310656 -20 38 54.06627
 2018-Aug-18 05:03 Cm  00 43 56.405576 -20 38 55.62530
 2018-Aug-18 05:04 Cm  00 43 56.500435 -20 38 57.18457
 2018-Aug-18 05:05 Cm  00 43 56.595236 -20 38 58.74406
 2018-Aug-18 05:06 Cm  00 43 56.689976 -20 39 00.30378
 2018-Aug-18 05:07 Cm  00 43 56.784656 -20 39 01.86373
 2018-Aug-18 05:08 Cm  00 43 56.879277 -20 39 03.42390
 2018-Aug-18 05:09 Cm  00 43 56.973837 -20 39 04.98430
 2018-Aug-18 05:10 Cm  00 43 57.068337 -20 39 06.54492
 2018-Aug-18 05:11 Cm  00 43 57.162776 -20 39 08.10575
 2018-Aug-18 05:12 Nm  00 43 57.257154 -20 39 09.66681
 2018-Aug-18 05:13 Nm  00 43 57.351472 -20 39 11.22809
 2018-Aug-18 05:14 Nm  00 43 57.445728 -20 39 12.78958
 2018-Aug-18 05:15 Nm  00 43 57.539923 -20 39 14.35129
 2018-Aug-18 05:16 Nm  00 43 57.634056 -20 39 15.91322
 2018-Aug-18 05:17 Nm  00 43 57.728128 -20 39 17.47535
 2018-Aug-18 05:18 Nm  00 43 57.822138 -20 39 19.03770
 2018-Aug-18 05:19 Nm  00 43 57.916086 -20 39 20.60026
 2018-Aug-18 05:20 Nm  00 43 58.009972 -20 39 22.16303
 2018-Aug-18 05:21 Nm  00 43 58.103796 -20 39 23.72601
 2018-Aug-18 05:22 Nm  00 43 58.197557 -20 39 25.28919
 2018-Aug-18 05:23 Nm  00 43 58.291255 -20 39 26.85258
 2018-Aug-18 05:24 Nm  00 43 58.384891 -20 39 28.41617
 2018-Aug-18 05:25 Nm  00 43 58.478464 -20 39 29.97997
 2018-Aug-18 05:26 Nm  00 43 58.571974 -20 39 31.54396
 2018-Aug-18 05:27 Nm  00 43 58.665421 -20 39 33.10816
 2018-Aug-18 05:28 Nm  00 43 58.758804 -20 39 34.67255
 2018-Aug-18 05:29 Nm  00 43 58.852124 -20 39 36.23714
 2018-Aug-18 05:30 Nm  00 43 58.945380 -20 39 37.80193
 2018-Aug-18 05:31 Nm  00 43 59.038572 -20 39 39.36691
 2018-Aug-18 05:32 Nm  00 43 59.131700 -20 39 40.93209
 2018-Aug-18 05:33 Nm  00 43 59.224764 -20 39 42.49746
 2018-Aug-18 05:34 Nm  00 43 59.317764 -20 39 44.06301
 2018-Aug-18 05:35 Nm  00 43 59.410700 -20 39 45.62876
 2018-Aug-18 05:36 Nm  00 43 59.503571 -20 39 47.19469
 2018-Aug-18 05:37 Nm  00 43 59.596377 -20 39 48.76081
 2018-Aug-18 05:38 Nm  00 43 59.689118 -20 39 50.32712
 2018-Aug-18 05:39 Am  00 43 59.781795 -20 39 51.89361
 2018-Aug-18 05:40 Am  00 43 59.874406 -20 39 53.46028
 2018-Aug-18 05:41 Am  00 43 59.966952 -20 39 55.02713
 2018-Aug-18 05:42 Am  00 44 00.059432 -20 39 56.59416
 2018-Aug-18 05:43 Am  00 44 00.151847 -20 39 58.16137
 2018-Aug-18 05:44 Am  00 44 00.244197 -20 39 59.72875
 2018-Aug-18 05:45 Am  00 44 00.336480 -20 40 01.29631
 2018-Aug-18 05:46 Am  00 44 00.428698 -20 40 02.86405
 2018-Aug-18 05:47 Am  00 44 00.520850 -20 40 04.43196
 2018-Aug-18 05:48 Am  00 44 00.612935 -20 40 06.00003
 2018-Aug-18 05:49 Am  00 44 00.704954 -20 40 07.56828
 2018-Aug-18 05:50 Am  00 44 00.796907 -20 40 09.13670
 2018-Aug-18 05:51 Am  00 44 00.888793 -20 40 10.70528
 2018-Aug-18 05:52 Am  00 44 00.980613 -20 40 12.27403
 2018-Aug-18 05:53 Am  00 44 01.072366 -20 40 13.84294
 2018-Aug-18 05:54 Am  00 44 01.164051 -20 40 15.41201
 2018-Aug-18 05:55 Am  00 44 01.255670 -20 40 16.98125
 2018-Aug-18 05:56 Am  00 44 01.347222 -20 40 18.55064
 2018-Aug-18 05:57 Am  00 44 01.438706 -20 40 20.12019
 2018-Aug-18 05:58 Am  00 44 01.530123 -20 40 21.68990
 2018-Aug-18 05:59 Am  00 44 01.621472 -20 40 23.25977
 2018-Aug-18 06:00 Am  00 44 01.712754 -20 40 24.82979
 2018-Aug-18 06:01 Am  00 44 01.803968 -20 40 26.39996
 2018-Aug-18 06:02 Am  00 44 01.895114 -20 40 27.97028
 2018-Aug-18 06:03 Am  00 44 01.986192 -20 40 29.54075
 2018-Aug-18 06:04 Am  00 44 02.077203 -20 40 31.11137
 2018-Aug-18 06:05 Am  00 44 02.168145 -20 40 32.68214
 2018-Aug-18 06:06  m  00 44 02.259018 -20 40 34.25305
 2018-Aug-18 06:07  m  00 44 02.349824 -20 40 35.82410
 2018-Aug-18 06:08  m  00 44 02.440561 -20 40 37.39530
 2018-Aug-18 06:09  m  00 44 02.531229 -20 40 38.96664
 2018-Aug-18 06:10  m  00 44 02.621829 -20 40 40.53811
 2018-Aug-18 06:11  m  00 44 02.712359 -20 40 42.10973
 2018-Aug-18 06:12  m  00 44 02.802821 -20 40 43.68148
 2018-Aug-18 06:13  m  00 44 02.893214 -20 40 45.25337
 2018-Aug-18 06:14  m  00 44 02.983538 -20 40 46.82539
 2018-Aug-18 06:15  m  00 44 03.073793 -20 40 48.39754
 2018-Aug-18 06:16  m  00 44 03.163978 -20 40 49.96982
 2018-Aug-18 06:17  m  00 44 03.254095 -20 40 51.54223
 2018-Aug-18 06:18  m  00 44 03.344141 -20 40 53.11477
 2018-Aug-18 06:19  m  00 44 03.434118 -20 40 54.68744
 2018-Aug-18 06:20  m  00 44 03.524026 -20 40 56.26023
 2018-Aug-18 06:21  m  00 44 03.613864 -20 40 57.83314
 2018-Aug-18 06:22  m  00 44 03.703632 -20 40 59.40617
 2018-Aug-18 06:23  m  00 44 03.793330 -20 41 00.97933
 2018-Aug-18 06:24  m  00 44 03.882958 -20 41 02.55260
 2018-Aug-18 06:25  m  00 44 03.972517 -20 41 04.12599
 2018-Aug-18 06:26  m  00 44 04.062005 -20 41 05.69949
 2018-Aug-18 06:27  m  00 44 04.151423 -20 41 07.27311
 2018-Aug-18 06:28  m  00 44 04.240770 -20 41 08.84685
 2018-Aug-18 06:29  m  00 44 04.330048 -20 41 10.42069
 2018-Aug-18 06:30  m  00 44 04.419255 -20 41 11.99464
 2018-Aug-18 06:31  m  00 44 04.508391 -20 41 13.56870
 2018-Aug-18 06:32  m  00 44 04.597457 -20 41 15.14287
 2018-Aug-18 06:33  m  00 44 04.686452 -20 41 16.71714
 2018-Aug-18 06:34  m  00 44 04.775377 -20 41 18.29152
 2018-Aug-18 06:35  m  00 44 04.864231 -20 41 19.86600
 2018-Aug-18 06:36  m  00 44 04.953013 -20 41 21.44058
 2018-Aug-18 06:37  m  00 44 05.041726 -20 41 23.01525
 2018-Aug-18 06:38  m  00 44 05.130367 -20 41 24.59003
 2018-Aug-18 06:39  m  00 44 05.218937 -20 41 26.16490
 2018-Aug-18 06:40  m  00 44 05.307436 -20 41 27.73986
 2018-Aug-18 06:41  m  00 44 05.395864 -20 41 29.31492
 2018-Aug-18 06:42  m  00 44 05.484220 -20 41 30.89007
 2018-Aug-18 06:43  m  00 44 05.572506 -20 41 32.46531
 2018-Aug-18 06:44  m  00 44 05.660720 -20 41 34.04064
 2018-Aug-18 06:45  m  00 44 05.748863 -20 41 35.61606
 2018-Aug-18 06:46  m  00 44 05.836934 -20 41 37.19156
 2018-Aug-18 06:47  m  00 44 05.924934 -20 41 38.76714
 2018-Aug-18 06:48  m  00 44 06.012863 -20 41 40.34281
 2018-Aug-18 06:49  m  00 44 06.100719 -20 41 41.91855
 2018-Aug-18 06:50  m  00 44 06.188505 -20 41 43.49438
 2018-Aug-18 06:51  m  00 44 06.276218 -20 41 45.07028
 2018-Aug-18 06:52  m  00 44 06.363860 -20 41 46.64626
 2018-Aug-18 06:53  m  00 44 06.451430 -20 41 48.22232
 2018-Aug-18 06:54  m  00 44 06.538929 -20 41 49.79844
 2018-Aug-18 06:55  m  00 44 06.626355 -20 41 51.37464
 2018-Aug-18 06:56  m  00 44 06.713710 -20 41 52.95091
 2018-Aug-18 06:57  m  00 44 06.800993 -20 41 54.52725
 2018-Aug-18 06:58  m  00 44 06.888203 -20 41 56.10365
 2018-Aug-18 06:59  m  00 44 06.975342 -20 41 57.68012
 2018-Aug-18 07:00  m  00 44 07.062409 -20 41 59.25665
